{
    "links": {
        "self": "http://www.neowsapp.com/rest/v1/neo/3184154?api_key=iIulBulltgU6a56xZRHN4H3l9WmuAYTsLGpBGhQ2"
    },
    "id": "3184154",
    "neo_reference_id": "3184154",
    "name": "(2004 MP1)",
    "designation": "2004 MP1",
    "nasa_jpl_url": "http://ssd.jpl.nasa.gov/sbdb.cgi?sstr=3184154",
    "absolute_magnitude_h": 25.2,
    "estimated_diameter": {
        "kilometers": {
            "estimated_diameter_min": 0.0242412481,
            "estimated_diameter_max": 0.0542050786
        },
        "meters": {
            "estimated_diameter_min": 24.2412481101,
            "estimated_diameter_max": 54.2050786336
        },
        "miles": {
            "estimated_diameter_min": 0.0150628086,
            "estimated_diameter_max": 0.0336814639
        },
        "feet": {
            "estimated_diameter_min": 79.5316564495,
            "estimated_diameter_max": 177.8381901842
        }
    },
    "is_potentially_hazardous_asteroid": false,
    "close_approach_data": [
        {
            "close_approach_date": "1926-03-23",
            "close_approach_date_full": "1926-Mar-23 13:00",
            "epoch_date_close_approach": -1381489200000,
            "relative_velocity": {
                "kilometers_per_second": "15.8967928756",
                "kilometers_per_hour": "57228.4543520754",
                "miles_per_hour": "35559.5359833771"
            },
            "miss_distance": {
                "astronomical": "0.3283952022",
                "lunar": "127.7457336558",
                "kilometers": "49127222.767339314",
                "miles": "30526240.7070339732"
            },
            "orbiting_body": "Earth"
        },
        {
            "close_approach_date": "2004-06-15",
            "close_approach_date_full": "2004-Jun-15 13:23",
            "epoch_date_close_approach": 1087305780000,
            "relative_velocity": {
                "kilometers_per_second": "9.1081253123",
                "kilometers_per_hour": "32789.2511242601",
                "miles_per_hour": "20373.9655110715"
            },
            "miss_distance": {
                "astronomical": "0.0365224281",
                "lunar": "14.2072245309",
                "kilometers": "5463677.450988147",
                "miles": "3394971.7411125486"
            },
            "orbiting_body": "Earth"
        }
    ],
    "orbital_data": {
        "orbit_id": "9",
        "orbit_determination_date": "2017-04-06 09:12:37",
        "first_observation_date": "2004-06-17",
        "last_observation_date": "2004-06-24",
        "data_arc_in_days": 7,
        "observations_used": 33,
        "orbit_uncertainty": "8",
        "minimum_orbit_intersection": ".0248836",
        "jupiter_tisserand_invariant": "3.964",
        "epoch_osculation": "2453177.5",
        "eccentricity": ".4381855492164549",
        "semi_major_axis": "1.778867403762149",
        "inclination": "8.648619834964945",
        "ascending_node_longitude": "266.7178184522861",
        "orbital_period": "866.5902381364173",
        "perihelion_distance": ".9993934134613824",
        "perihelion_argument": "326.6916724489052",
        "aphelion_distance": "2.558341394062915",
        "perihelion_time": "2453146.054100933857",
        "mean_anomaly": "13.06329469872175",
        "mean_motion": ".4154212500410481",
        "equinox": "J2000",
        "orbit_class": {
            "orbit_class_type": "APO",
            "orbit_class_description": "Near-Earth asteroid orbits which cross the Earth’s orbit similar to that of 1862 Apollo",
            "orbit_class_range": "a (semi-major axis) > 1.0 AU; q (perihelion) < 1.017 AU"
        }
    },
    "is_sentry_object": false
}